BEIDOU-3 G3 (PRN 143)   
1 45807U 20040A   26116.81188039 -.00000363  00000+0  00000+0 0  9995
2 45807   2.3233  67.2973 0003744 329.6038 220.7254  1.00270394 21553
GALAXY 30 (WAAS/PRN 135)
1 46114U 20056C   26116.68317992  .00000000  00000+0  00000+0 0  9998
2 46114   0.0129 235.3307 0002479 173.0120 287.2804  1.00271187 20773
QZS-1R (QZSS/PRN 196)   
1 49336U 21096A   26116.78683814 -.00000235  00000+0  00000+0 0  9993
2 49336  37.3595  80.3391 0751378 270.8456 282.5590  1.00273034 16497
QZS-6 (QZSS/PRN 200)    
1 62876U 25023A   26116.90048887  .00000000  00000+0  00000+0 0  9999
2 62876   0.0132  72.8376 0002700 332.3049 224.4128  1.00271535  4442
