[{"OBJECT_NAME":"BEIDOU-3 G3 (PRN 143)","OBJECT_ID":"2020-040A","EPOCH":"2026-04-26T19:29:06.465696","MEAN_MOTION":1.00270394,"ECCENTRICITY":0.0003744,"INCLINATION":2.3233,"RA_OF_ASC_NODE":67.2973,"ARG_OF_PERICENTER":329.6038,"MEAN_ANOMALY":220.7254,"EPHEMERIS_TYPE":0,"CLASSIFICATION_TYPE":"U","NORAD_CAT_ID":45807,"ELEMENT_SET_NO":999,"REV_AT_EPOCH":2155,"BSTAR":0,"MEAN_MOTION_DOT":-3.63e-6,"MEAN_MOTION_DDOT":0},{"OBJECT_NAME":"GALAXY 30 (WAAS/PRN 135)","OBJECT_ID":"2020-056C","EPOCH":"2026-04-26T16:23:46.745088","MEAN_MOTION":1.00271187,"ECCENTRICITY":0.0002479,"INCLINATION":0.0129,"RA_OF_ASC_NODE":235.3307,"ARG_OF_PERICENTER":173.012,"MEAN_ANOMALY":287.2804,"EPHEMERIS_TYPE":0,"CLASSIFICATION_TYPE":"U","NORAD_CAT_ID":46114,"ELEMENT_SET_NO":999,"REV_AT_EPOCH":2077,"BSTAR":0,"MEAN_MOTION_DOT":0,"MEAN_MOTION_DDOT":0},{"OBJECT_NAME":"QZS-1R (QZSS/PRN 196)","OBJECT_ID":"2021-096A","EPOCH":"2026-04-26T18:53:02.815296","MEAN_MOTION":1.00273034,"ECCENTRICITY":0.0751378,"INCLINATION":37.3595,"RA_OF_ASC_NODE":80.3391,"ARG_OF_PERICENTER":270.8456,"MEAN_ANOMALY":282.559,"EPHEMERIS_TYPE":0,"CLASSIFICATION_TYPE":"U","NORAD_CAT_ID":49336,"ELEMENT_SET_NO":999,"REV_AT_EPOCH":1649,"BSTAR":0,"MEAN_MOTION_DOT":-2.35e-6,"MEAN_MOTION_DDOT":0},{"OBJECT_NAME":"QZS-6 (QZSS/PRN 200)","OBJECT_ID":"2025-023A","EPOCH":"2026-04-26T21:36:42.238368","MEAN_MOTION":1.00271535,"ECCENTRICITY":0.00027,"INCLINATION":0.0132,"RA_OF_ASC_NODE":72.8376,"ARG_OF_PERICENTER":332.3049,"MEAN_ANOMALY":224.4128,"EPHEMERIS_TYPE":0,"CLASSIFICATION_TYPE":"U","NORAD_CAT_ID":62876,"ELEMENT_SET_NO":999,"REV_AT_EPOCH":444,"BSTAR":0,"MEAN_MOTION_DOT":0,"MEAN_MOTION_DDOT":0}]
